{
  "type": "FeatureCollection",
  "features": [
    {
      "type": "Feature",
      "properties": {
        "norad_id": 43262,
        "name": "GAOFEN-1 04",
        "group": "resource",
        "lat": 9.3207942504182,
        "lon": 51.11281608998867,
        "alt_km": 641.9924500155521,
        "timestamp": "2025-12-20T14:38:01.616138+00:00",
        "meta_object_name": "GAOFEN-1 04",
        "meta_object_id": "2018-031D",
        "meta_epoch": "2025-12-20T06:27:30.942432",
        "meta_mean_motion": 14.76421956,
        "meta_eccentricity": 7.23e-05,
        "meta_inclination": 98.0804,
        "meta_ra_of_asc_node": 52.1082,
        "meta_arg_of_pericenter": 54.8857,
        "meta_mean_anomaly": 305.242,
        "meta_ephemeris_type": 0,
        "meta_classification_type": "U",
        "meta_norad_cat_id": 43262,
        "meta_element_set_no": 999,
        "meta_rev_at_epoch": 41628,
        "meta_bstar": 0.00015760256,
        "meta_mean_motion_dot": 1.044e-05,
        "meta_mean_motion_ddot": 0,
        "tle_line1": "1 43262U 18031D   25354.26910813  .00001044  00000+0  15760-3 0  9999",
        "tle_line2": "2 43262  98.0804  52.1082 0000723  54.8857 305.2420 14.76421956416287"
      },
      "geometry": {
        "type": "Point",
        "coordinates": [
          51.11281608998867,
          9.3207942504182
        ]
      }
    },
    {
      "type": "Feature",
      "properties": {
        "norad_id": 43437,
        "name": "SENTINEL-3B",
        "group": "resource",
        "lat": -29.700566933371125,
        "lon": -125.28525329243791,
        "alt_km": 809.0726640241583,
        "timestamp": "2025-12-20T14:38:01.616148+00:00",
        "meta_object_name": "SENTINEL-3B",
        "meta_object_id": "2018-039A",
        "meta_epoch": "2025-12-20T01:52:15.630816",
        "meta_mean_motion": 14.26736631,
        "meta_eccentricity": 0.00016258,
        "meta_inclination": 98.6258,
        "meta_ra_of_asc_node": 59.1578,
        "meta_arg_of_pericenter": 94.4485,
        "meta_mean_anomaly": 265.6881,
        "meta_ephemeris_type": 0,
        "meta_classification_type": "U",
        "meta_norad_cat_id": 43437,
        "meta_element_set_no": 999,
        "meta_rev_at_epoch": 39858,
        "meta_bstar": 5.9718568e-05,
        "meta_mean_motion_dot": 1.01e-06,
        "meta_mean_motion_ddot": 0,
        "tle_line1": "1 43437U 18039A   25354.07795869  .00000101  00000+0  59719-4 0  9998",
        "tle_line2": "2 43437  98.6258  59.1578 0001625  94.4485 265.6881 14.26736631398582"
      },
      "geometry": {
        "type": "Point",
        "coordinates": [
          -125.28525329243791,
          -29.700566933371125
        ]
      }
    },
    {
      "type": "Feature",
      "properties": {
        "norad_id": 43461,
        "name": "GAOFEN-5 01",
        "group": "resource",
        "lat": 69.98631344251315,
        "lon": -66.32225983086403,
        "alt_km": 685.3187783569983,
        "timestamp": "2025-12-20T14:38:01.616158+00:00",
        "meta_object_name": "GAOFEN-5 01",
        "meta_object_id": "2018-043A",
        "meta_epoch": "2025-12-20T04:26:24.959040",
        "meta_mean_motion": 14.60417213,
        "meta_eccentricity": 5.411e-05,
        "meta_inclination": 98.4336,
        "meta_ra_of_asc_node": 317.2825,
        "meta_arg_of_pericenter": 293.9801,
        "meta_mean_anomaly": 66.1342,
        "meta_ephemeris_type": 0,
        "meta_classification_type": "U",
        "meta_norad_cat_id": 43461,
        "meta_element_set_no": 999,
        "meta_rev_at_epoch": 40556,
        "meta_bstar": 7.4171655e-05,
        "meta_mean_motion_dot": 3.1e-06,
        "meta_mean_motion_ddot": 0,
        "tle_line1": "1 43461U 18043A   25354.18501110  .00000310  00000+0  74172-4 0  9998",
        "tle_line2": "2 43461  98.4336 317.2825 0000541 293.9801  66.1342 14.60417213405564"
      },
      "geometry": {
        "type": "Point",
        "coordinates": [
          -66.32225983086403,
          69.98631344251315
        ]
      }
    },
    {
      "type": "Feature",
      "properties": {
        "norad_id": 43484,
        "name": "GAOFEN-6",
        "group": "resource",
        "lat": 15.565197707701474,
        "lon": -119.19811502861707,
        "alt_km": 645.9420760892126,
        "timestamp": "2025-12-20T14:38:01.616168+00:00",
        "meta_object_name": "GAOFEN-6",
        "meta_object_id": "2018-048A",
        "meta_epoch": "2025-12-20T07:23:17.409696",
        "meta_mean_motion": 14.76579367,
        "meta_eccentricity": 0.00128508,
        "meta_inclination": 97.8029,
        "meta_ra_of_asc_node": 58.3211,
        "meta_arg_of_pericenter": 41.3154,
        "meta_mean_anomaly": 318.9026,
        "meta_ephemeris_type": 0,
        "meta_classification_type": "U",
        "meta_norad_cat_id": 43484,
        "meta_element_set_no": 999,
        "meta_rev_at_epoch": 40699,
        "meta_bstar": 9.3358859e-05,
        "meta_mean_motion_dot": 6.03e-06,
        "meta_mean_motion_ddot": 0,
        "tle_line1": "1 43484U 18048A   25354.30784039  .00000603  00000+0  93359-4 0  9998",
        "tle_line2": "2 43484  97.8029  58.3211 0012850  41.3154 318.9026 14.76579367406996"
      },
      "geometry": {
        "type": "Point",
        "coordinates": [
          -119.19811502861707,
          15.565197707701474
        ]
      }
    },
    {
      "type": "Feature",
      "properties": {
        "norad_id": 43585,
        "name": "GAOFEN-11 01",
        "group": "resource",
        "lat": -48.09350415516213,
        "lon": -130.56745409285028,
        "alt_km": 423.3740701112738,
        "timestamp": "2025-12-20T14:38:01.616178+00:00",
        "meta_object_name": "GAOFEN-11 01",
        "meta_object_id": "2018-063A",
        "meta_epoch": "2025-12-20T05:54:00.993312",
        "meta_mean_motion": 15.4942703,
        "meta_eccentricity": 0.00039155,
        "meta_inclination": 97.1558,
        "meta_ra_of_asc_node": 57.1189,
        "meta_arg_of_pericenter": 274.1376,
        "meta_mean_anomaly": 85.9429,
        "meta_ephemeris_type": 0,
        "meta_classification_type": "U",
        "meta_norad_cat_id": 43585,
        "meta_element_set_no": 999,
        "meta_rev_at_epoch": 41258,
        "meta_bstar": 0.00030365909,
        "meta_mean_motion_dot": 0.00016604,
        "meta_mean_motion_ddot": 0,
        "tle_line1": "1 43585U 18063A   25354.24584483  .00016604  00000+0  30366-3 0  9997",
        "tle_line2": "2 43585  97.1558  57.1189 0003915 274.1376  85.9429 15.49427030412583"
      },
      "geometry": {
        "type": "Point",
        "coordinates": [
          -130.56745409285028,
          -48.09350415516213
        ]
      }
    },
    {
      "type": "Feature",
      "properties": {
        "norad_id": 43613,
        "name": "ICESAT-2",
        "group": "resource",
        "lat": 86.39121500820973,
        "lon": -150.87829005404566,
        "alt_km": 472.0049051715341,
        "timestamp": "2025-12-20T14:38:01.616189+00:00",
        "meta_object_name": "ICESAT-2",
        "meta_object_id": "2018-070A",
        "meta_epoch": "2025-12-20T03:15:13.582368",
        "meta_mean_motion": 15.28225301,
        "meta_eccentricity": 0.00028009,
        "meta_inclination": 92.0048,
        "meta_ra_of_asc_node": 242.7331,
        "meta_arg_of_pericenter": 120.7355,
        "meta_mean_anomaly": 239.417,
        "meta_ephemeris_type": 0,
        "meta_classification_type": "U",
        "meta_norad_cat_id": 43613,
        "meta_element_set_no": 999,
        "meta_rev_at_epoch": 40511,
        "meta_bstar": 0.00028607395,
        "meta_mean_motion_dot": 7.866e-05,
        "meta_mean_motion_ddot": 0,
        "tle_line1": "1 43613U 18070A   25354.13557387  .00007866  00000+0  28607-3 0  9993",
        "tle_line2": "2 43613  92.0048 242.7331 0002800 120.7355 239.4170 15.28225301405113"
      },
      "geometry": {
        "type": "Point",
        "coordinates": [
          -150.87829005404566,
          86.39121500820973
        ]
      }
    },
    {
      "type": "Feature",
      "properties": {
        "norad_id": 43719,
        "name": "HYSIS",
        "group": "resource",
        "lat": -75.97876062303,
        "lon": -156.77271282900344,
        "alt_km": 641.5128351176436,
        "timestamp": "2025-12-20T14:38:01.616199+00:00",
        "meta_object_name": "HYSIS",
        "meta_object_id": "2018-096A",
        "meta_epoch": "2025-12-20T06:58:19.967232",
        "meta_mean_motion": 14.78666294,
        "meta_eccentricity": 0.00010376,
        "meta_inclination": 98.0095,
        "meta_ra_of_asc_node": 57.2318,
        "meta_arg_of_pericenter": 53.1223,
        "meta_mean_anomaly": 307.0082,
        "meta_ephemeris_type": 0,
        "meta_classification_type": "U",
        "meta_norad_cat_id": 43719,
        "meta_element_set_no": 999,
        "meta_rev_at_epoch": 38098,
        "meta_bstar": 0.00019097189,
        "meta_mean_motion_dot": 1.348e-05,
        "meta_mean_motion_ddot": 0,
        "tle_line1": "1 43719U 18096A   25354.29050888  .00001348  00000+0  19097-3 0  9991",
        "tle_line2": "2 43719  98.0095  57.2318 0001037  53.1223 307.0082 14.78666294380981"
      },
      "geometry": {
        "type": "Point",
        "coordinates": [
          -156.77271282900344,
          -75.97876062303
        ]
      }
    }
  ]
}